NORAD_CAT_ID,OBJECT_NAME,OBJECT_TYPE,EPOCH,MEAN_MOTION,ECCENTRICITY,INCLINATION,RA_OF_ASC_NODE,ARG_OF_PERICENTER,MEAN_ANOMALY,BSTAR,MEAN_MOTION_DOT,MEAN_MOTION_DDOT,TLE_LINE0,TLE_LINE1,TLE_LINE2,SEMIMAJOR_AXIS,PERIOD,APOGEE,PERIGEE,DECAYED
56478.0,STARLINK-6041,PAYLOAD,2023-12-22 04:31:04,14.98327507,0.0002659,70.001,2.9747,256.0309,104.0554,2.3906e-05,1.92e-06,0.0,0 STARLINK-6041,1 56478U 23064AG  23356.18824959  .00000192  00000-0  23906-4 0  9996,2 56478  70.0010   2.9747 0002659 256.0309 104.0554 14.98327507 34996,6950.201,96.107,573.914,570.218,0.0
56478.0,STARLINK-6041,PAYLOAD,2023-12-22 10:55:36,14.983291,0.000265,70.0008,2.3008,264.1444,95.9413,4.1101e-05,3.97e-06,0.0,0 STARLINK-6041,1 56478U 23064AG  23356.45528896  .00000397  00000-0  41101-4 0  9991,2 56478  70.0008   2.3008 0002650 264.1444  95.9413 14.98329100 34676,6950.196,96.107,573.902,570.219,0.0
56478.0,STARLINK-6041,PAYLOAD,2023-12-23 02:56:57,14.98351689,0.0002378,70.0008,0.6179,260.4108,99.6783,-0.00042283,-5.137e-05,0.0,0 STARLINK-6041,1 56478U 23064AG  23357.12288890 -.00005137  00000-0 -42283-3 0  9993,2 56478  70.0008   0.6179 0002378 260.4108  99.6783 14.98351689 35139,6950.126,96.106,573.644,570.338,0.0
56478.0,STARLINK-6041,PAYLOAD,2023-12-23 09:21:29,14.98347771,0.0002324,70.0011,359.945,255.1123,104.9779,-0.0003685,-4.489e-05,0.0,0 STARLINK-6041,1 56478U 23064AG  23357.38992684 -.00004489  00000-0 -36850-3 0  9996,2 56478  70.0011 359.9450 0002324 255.1123 104.9779 14.98347771 34810,6950.138,96.106,573.618,570.388,0.0
56478.0,STARLINK-6041,PAYLOAD,2023-12-24 02:58:58,14.98327063,0.0002586,70.0011,358.0931,263.0744,97.0121,-4.4325e-06,-1.46e-06,0.0,0 STARLINK-6041,1 56478U 23064AG  23358.12429072 -.00000146  00000-0 -44325-5 0  9999,2 56478  70.0011 358.0931 0002586 263.0744  97.0121 14.98327063 35288,6950.202,96.107,573.864,570.27,0.0
56478.0,STARLINK-6041,PAYLOAD,2023-12-24 09:23:30,14.9831902,0.0002636,70.0011,357.4192,262.7389,97.347,0.00019322,2.213e-05,0.0,0 STARLINK-6041,1 56478U 23064AG  23358.39133090  .00002213  00000-0  19322-3 0  9992,2 56478  70.0011 357.4192 0002636 262.7389  97.3470 14.98319020 34965,6950.227,96.108,573.924,570.26,0.0
56478.0,STARLINK-6041,PAYLOAD,2023-12-25 03:00:59,14.9832922,0.0002502,70.0008,355.5676,257.9879,102.1,3.5234e-05,3.27e-06,0.0,0 STARLINK-6041,1 56478U 23064AG  23359.12568778  .00000327  00000-0  35234-4 0  9994,2 56478  70.0008 355.5676 0002502 257.9879 102.1000 14.98329220 35439,6950.195,96.107,573.799,570.321,0.0
56478.0,STARLINK-6041,PAYLOAD,2023-12-25 09:25:31,14.98329985,0.0002498,70.0009,354.8944,258.0766,102.0113,4.0988e-05,3.96e-06,0.0,0 STARLINK-6041,1 56478U 23064AG  23359.39272718  .00000396  00000-0  40988-4 0  9997,2 56478  70.0009 354.8944 0002498 258.0766 102.0113 14.98329985 35118,6950.193,96.107,573.794,570.322,0.0
56478.0,STARLINK-6041,PAYLOAD,2023-12-26 03:03:00,14.9832865,0.0002615,70.0005,353.042,263.9729,96.1132,-2.389e-05,-3.78e-06,0.0,0 STARLINK-6041,1 56478U 23064AG  23360.12708989 -.00000378  00000-0 -23890-4 0  9999,2 56478  70.0005 353.0420 0002615 263.9729  96.1132 14.98328650 35582,6950.197,96.107,573.88,570.245,0.0
56478.0,STARLINK-6041,PAYLOAD,2023-12-26 09:27:32,14.98329146,0.0002609,70.0007,352.3689,264.1785,95.9077,-1.5643e-05,-2.8e-06,0.0,0 STARLINK-6041,1 56478U 23064AG  23360.39412952 -.00000280  00000-0 -15643-4 0  9999,2 56478  70.0007 352.3689 0002609 264.1785  95.9077 14.98329146 35262,6950.196,96.107,573.874,570.247,0.0
56478.0,STARLINK-6041,PAYLOAD,2023-12-27 03:05:01,14.9833132,0.0002701,70.0006,350.5174,265.1093,94.9758,-1.9441e-05,-3.25e-06,0.0,0 STARLINK-6041,1 56478U 23064AG  23361.12848802 -.00000325  00000-0 -19441-4 0  9998,2 56478  70.0006 350.5174 0002701 265.1093  94.9758 14.98331320 35730,6950.189,96.107,573.931,570.177,0.0
56478.0,STARLINK-6041,PAYLOAD,2023-12-27 09:29:33,14.98334726,0.0002647,70.0007,349.8442,264.8148,95.2709,2.3642e-05,1.89e-06,0.0,0 STARLINK-6041,1 56478U 23064AG  23361.39552421  .00000189  00000-0  23642-4 0  9990,2 56478  70.0007 349.8442 0002647 264.8148  95.2709 14.98334726 35414,6950.178,96.107,573.883,570.204,0.0
56478.0,STARLINK-6041,PAYLOAD,2023-12-28 03:07:02,14.98328007,0.0002509,70.001,347.9936,259.3982,100.6894,9.4911e-06,2e-07,0.0,0 STARLINK-6041,1 56478U 23064AG  23362.12988824  .00000020  00000-0  94911-5 0  9994,2 56478  70.0010 347.9936 0002509 259.3982 100.6894 14.98328007 35889,6950.199,96.107,573.808,570.32,0.0
56478.0,STARLINK-6041,PAYLOAD,2023-12-28 09:31:34,14.98326434,0.0002546,70.0009,347.3197,263.4489,96.638,-1.0288e-05,-2.16e-06,0.0,0 STARLINK-6041,1 56478U 23064AG  23362.39693028 -.00000216  00000-0 -10288-4 0  9995,2 56478  70.0009 347.3197 0002546 263.4489  96.6380 14.98326434 35560,6950.204,96.107,573.838,570.299,0.0
56478.0,STARLINK-6041,PAYLOAD,2023-12-28 22:20:39,14.98330506,0.0002615,70.0005,345.9741,262.7115,97.3747,-3.9477e-05,-5.64e-06,0.0,0 STARLINK-6041,1 56478U 23064AG  23362.93100898 -.00000564  00000-0 -39477-4 0  9990,2 56478  70.0005 345.9741 0002615 262.7115  97.3747 14.98330506 35649,6950.191,96.107,573.874,570.239,0.0
56478.0,STARLINK-6041,PAYLOAD,2023-12-29 03:09:03,14.98331802,0.0002656,70.0006,345.4686,260.6244,99.4615,-2.3135e-05,-3.69e-06,0.0,0 STARLINK-6041,1 56478U 23064AG  23363.13128689 -.00000369  00000-0 -23135-4 0  9998,2 56478  70.0006 345.4686 0002656 260.6244  99.4615 14.98331802 36039,6950.187,96.107,573.898,570.206,0.0
56478.0,STARLINK-6041,PAYLOAD,2023-12-29 09:33:35,14.98332811,0.0002688,70.0007,344.7947,261.152,98.9334,4.9899e-06,-3.3e-07,0.0,0 STARLINK-6041,1 56478U 23064AG  23363.39832516 -.00000033  00000-0  49899-5 0  9990,2 56478  70.0007 344.7947 0002688 261.1520  98.9334 14.98332811 35717,6950.184,96.107,573.917,570.181,0.0
56478.0,STARLINK-6041,PAYLOAD,2023-12-30 03:11:04,14.98329086,0.0002609,70.0007,342.9431,257.7571,102.3296,1.3071e-05,6.3e-07,0.0,0 STARLINK-6041,1 56478U 23064AG  23364.13268676  .00000063  00000-0  13071-4 0  9997,2 56478  70.0007 342.9431 0002609 257.7571 102.3296 14.98329086 36184,6950.196,96.107,573.874,570.247,0.0
56478.0,STARLINK-6041,PAYLOAD,2023-12-30 09:35:36,14.98331713,0.000254,70.0009,342.2698,252.6753,107.4129,1.7282e-05,1.13e-06,0.0,0 STARLINK-6041,1 56478U 23064AG  23364.39972474  .00000113  00000-0  17282-4 0  9997,2 56478  70.0009 342.2698 0002540 252.6753 107.4129 14.98331713 35869,6950.188,96.107,573.818,570.287,0.0
56478.0,STARLINK-6041,PAYLOAD,2023-12-31 03:13:05,14.98328627,0.0002575,70.0013,340.4187,254.5419,105.5456,-3.7252e-06,-1.37e-06,0.0,0 STARLINK-6041,1 56478U 23064AG  23365.13408708 -.00000137  00000-0 -37252-5 0  9992,2 56478  70.0013 340.4187 0002575 254.5419 105.5456 14.98328627 36330,6950.197,96.107,573.852,570.272,0.0
56478.0,STARLINK-6041,PAYLOAD,2023-12-31 08:01:29,14.98331959,0.0002909,70.0004,339.913,265.1749,94.9078,8.4699e-06,8e-08,0.0,0 STARLINK-6041,1 56478U 23064AG  23365.33436492  .00000008  00000-0  84699-5 0  9997,2 56478  70.0004 339.9130 0002909 265.1749  94.9078 14.98331959 36003,6950.187,96.107,574.074,570.03,0.0
56478.0,STARLINK-6041,PAYLOAD,2024-01-01 03:15:06,14.98329446,0.0002758,70.0006,337.8919,266.1773,93.9071,-2.8123e-05,-4.28e-06,0.0,0 STARLINK-6041,1 56478U 23064AG  24001.13548754 -.00000428  00000-0 -28123-4 0  9995,2 56478  70.0006 337.8919 0002758 266.1773  93.9071 14.98329446 36489,6950.195,96.107,573.976,570.143,0.0
56478.0,STARLINK-6041,PAYLOAD,2024-01-01 08:03:30,14.98331079,0.0002737,70.0007,337.3872,265.7654,94.3192,-7.266e-06,-1.8e-06,0.0,0 STARLINK-6041,1 56478U 23064AG  24001.33576588 -.00000180  00000-0 -72660-5 0  9994,2 56478  70.0007 337.3872 0002737 265.7654  94.3192 14.98331079 36151,6950.19,96.107,573.957,570.152,0.0
56478.0,STARLINK-6041,PAYLOAD,2024-01-01 22:28:42,14.9833062,0.000281,70.0006,335.8724,266.1358,93.948,1.1278e-05,4.2e-07,0.0,0 STARLINK-6041,1 56478U 23064AG  24001.93660518  .00000042  00000-0  11278-4 0  9999,2 56478  70.0006 335.8724 0002810 266.1358  93.9480 14.98330620 36243,6950.191,96.107,574.009,570.103,0.0
56478.0,STARLINK-6041,PAYLOAD,2024-01-02 03:17:06,14.98321396,0.0002735,70.0008,335.3668,266.8303,93.2543,0.00019144,2.191e-05,0.0,0 STARLINK-6041,1 56478U 23064AG  24002.13688545  .00002191  00000-0  19144-3 0  9998,2 56478  70.0008 335.3668 0002735 266.8303  93.2543 14.98321396 36636,6950.219,96.108,573.985,570.184,0.0
56478.0,STARLINK-6041,PAYLOAD,2024-01-02 08:05:30,14.98321506,0.0002675,70.001,334.8626,266.3066,93.7787,0.00030209,3.513e-05,0.0,0 STARLINK-6041,1 56478U 23064AG  24002.33716308  .00003513  00000-0  30209-3 0  9993,2 56478  70.0010 334.8626 0002675 266.3066  93.7787 14.98321506 36303,6950.219,96.108,573.943,570.225,0.0
56478.0,STARLINK-6041,PAYLOAD,2024-01-02 22:30:43,14.98331412,0.0002541,70.0015,333.3494,259.9334,100.1538,3.2697e-05,2.97e-06,0.0,0 STARLINK-6041,1 56478U 23064AG  24002.93800209  .00000297  00000-0  32697-4 0  9993,2 56478  70.0015 333.3494 0002541 259.9334 100.1538 14.98331412 36396,6950.189,96.107,573.82,570.287,0.0
56478.0,STARLINK-6041,PAYLOAD,2024-01-03 03:19:07,14.98330739,0.0002574,70.0015,332.8443,259.8865,100.2004,1.8717e-05,1.3e-06,0.0,0 STARLINK-6041,1 56478U 23064AG  24003.13828260  .00000130  00000-0  18717-4 0  9996,2 56478  70.0015 332.8443 0002574 259.8865 100.2004 14.98330739 36781,6950.191,96.107,573.845,570.267,0.0
56478.0,STARLINK-6041,PAYLOAD,2024-01-03 08:07:31,14.98329784,0.0002601,70.0014,332.3392,261.1055,98.981,4.0452e-06,-4.5e-07,0.0,0 STARLINK-6041,1 56478U 23064AG  24003.33856357 -.00000045  00000-0  40452-5 0  9994,2 56478  70.0014 332.3392 0002601 261.1055  98.9810 14.98329784 36456,6950.194,96.107,573.866,570.251,0.0
56478.0,STARLINK-6041,PAYLOAD,2024-01-03 22:32:44,14.98331936,0.0002614,70.0014,330.8246,261.0686,99.0177,-5.1176e-05,-7.04e-06,0.0,0 STARLINK-6041,1 56478U 23064AG  24003.93940341 -.00000704  00000-0 -51176-4 0  9994,2 56478  70.0014 330.8246 0002614 261.0686  99.0177 14.98331936 36540,6950.187,96.107,573.869,570.235,0.0
